{
    "links": {
        "self": "http://www.neowsapp.com/rest/v1/neo/3789458?api_key=iIulBulltgU6a56xZRHN4H3l9WmuAYTsLGpBGhQ2"
    },
    "id": "3789458",
    "neo_reference_id": "3789458",
    "name": "(2017 WW)",
    "designation": "2017 WW",
    "nasa_jpl_url": "http://ssd.jpl.nasa.gov/sbdb.cgi?sstr=3789458",
    "absolute_magnitude_h": 21.1,
    "estimated_diameter": {
        "kilometers": {
            "estimated_diameter_min": 0.160160338,
            "estimated_diameter_max": 0.358129403
        },
        "meters": {
            "estimated_diameter_min": 160.1603379786,
            "estimated_diameter_max": 358.1294030194
        },
        "miles": {
            "estimated_diameter_min": 0.0995189894,
            "estimated_diameter_max": 0.2225312253
        },
        "feet": {
            "estimated_diameter_min": 525.4604432536,
            "estimated_diameter_max": 1174.9652706022
        }
    },
    "is_potentially_hazardous_asteroid": false,
    "close_approach_data": [
        {
            "close_approach_date": "2004-11-20",
            "close_approach_date_full": "2004-Nov-20 10:14",
            "epoch_date_close_approach": 1100945640000,
            "relative_velocity": {
                "kilometers_per_second": "32.826529764",
                "kilometers_per_hour": "118175.5071503464",
                "miles_per_hour": "73429.6644290583"
            },
            "miss_distance": {
                "astronomical": "0.4574766022",
                "lunar": "177.9583982558",
                "kilometers": "68437525.263957314",
                "miles": "42525106.2836423732"
            },
            "orbiting_body": "Earth"
        },
        {
            "close_approach_date": "2012-05-13",
            "close_approach_date_full": "2012-May-13 18:54",
            "epoch_date_close_approach": 1336935240000,
            "relative_velocity": {
                "kilometers_per_second": "25.4334355614",
                "kilometers_per_hour": "91560.3680209136",
                "miles_per_hour": "56892.0520072171"
            },
            "miss_distance": {
                "astronomical": "0.2069835889",
                "lunar": "80.5166160821",
                "kilometers": "30964304.024395643",
                "miles": "19240326.3349721534"
            },
            "orbiting_body": "Earth"
        },
        {
            "close_approach_date": "2017-10-25",
            "close_approach_date_full": "2017-Oct-25 08:54",
            "epoch_date_close_approach": 1508921640000,
            "relative_velocity": {
                "kilometers_per_second": "17.2537961987",
                "kilometers_per_hour": "62113.6663153445",
                "miles_per_hour": "38595.0167168872"
            },
            "miss_distance": {
                "astronomical": "0.2301815841",
                "lunar": "89.5406362149",
                "kilometers": "34434674.694585867",
                "miles": "21396714.6763722846"
            },
            "orbiting_body": "Earth"
        },
        {
            "close_approach_date": "2030-05-27",
            "close_approach_date_full": "2030-May-27 21:40",
            "epoch_date_close_approach": 1906148400000,
            "relative_velocity": {
                "kilometers_per_second": "17.9111064878",
                "kilometers_per_hour": "64479.9833562002",
                "miles_per_hour": "40065.3541026345"
            },
            "miss_distance": {
                "astronomical": "0.1970696203",
                "lunar": "76.6600822967",
                "kilometers": "29481195.438588761",
                "miles": "18318765.3931004618"
            },
            "orbiting_body": "Earth"
        }
    ],
    "orbital_data": {
        "orbit_id": "7",
        "orbit_determination_date": "2017-12-16 06:46:39",
        "first_observation_date": "2017-11-16",
        "last_observation_date": "2017-12-13",
        "data_arc_in_days": 27,
        "observations_used": 59,
        "orbit_uncertainty": "7",
        "minimum_orbit_intersection": ".114061",
        "jupiter_tisserand_invariant": "3.624",
        "epoch_osculation": "2459000.5",
        "eccentricity": ".6028013707808414",
        "semi_major_axis": "1.880474730914026",
        "inclination": "26.67420178324165",
        "ascending_node_longitude": "229.9021202012268",
        "orbital_period": "941.8889019635378",
        "perihelion_distance": ".7469219854003172",
        "perihelion_argument": "90.96364616043704",
        "aphelion_distance": "3.014027476427735",
        "perihelion_time": "2458938.189127965155",
        "mean_anomaly": "23.81588092372768",
        "mean_motion": ".3822106824377215",
        "equinox": "J2000",
        "orbit_class": {
            "orbit_class_type": "APO",
            "orbit_class_description": "Near-Earth asteroid orbits which cross the Earth’s orbit similar to that of 1862 Apollo",
            "orbit_class_range": "a (semi-major axis) > 1.0 AU; q (perihelion) < 1.017 AU"
        }
    },
    "is_sentry_object": false
}